NORAD_CAT_ID,OBJECT_NAME,OBJECT_TYPE,EPOCH,MEAN_MOTION,ECCENTRICITY,INCLINATION,RA_OF_ASC_NODE,ARG_OF_PERICENTER,MEAN_ANOMALY,BSTAR,MEAN_MOTION_DOT,MEAN_MOTION_DDOT,TLE_LINE0,TLE_LINE1,TLE_LINE2,SEMIMAJOR_AXIS,PERIOD,APOGEE,PERIGEE,DECAYED
52577.0,STARLINK-3836,PAYLOAD,2023-11-17 10:15:37,15.08870168,0.0002099,53.218,319.6745,86.6886,273.4346,0.0005974,9.24e-05,0.0,0 STARLINK-3836,1 52577U 22051AT  23321.42751843  .00009240  00000-0  59740-3 0  9994,2 52577  53.2180 319.6745 0002099  86.6886 273.4346 15.08870168 84144,6917.788,95.436,541.105,538.201,0.0
52577.0,STARLINK-3836,PAYLOAD,2023-11-17 19:47:56,15.08851314,0.0002131,53.218,317.8893,98.0577,262.0657,-0.00014251,-2.556e-05,0.0,0 STARLINK-3836,1 52577U 22051AT  23321.82495780 -.00002556  00000-0 -14251-3 0  9996,2 52577  53.2180 317.8893 0002131  98.0577 262.0657 15.08851314 84207,6917.846,95.437,541.185,538.237,0.0
52577.0,STARLINK-3836,PAYLOAD,2023-11-18 06:55:38,15.08849504,0.000205,53.2172,315.8088,91.6113,268.5114,-4.4172e-05,-9.91e-06,0.0,0 STARLINK-3836,1 52577U 22051AT  23322.28863784 -.00000991  00000-0 -44172-4 0  9997,2 52577  53.2172 315.8088 0002050  91.6113 268.5114 15.08849504 84204,6917.851,95.437,541.134,538.298,0.0
52577.0,STARLINK-3836,PAYLOAD,2023-11-18 16:27:57,15.088443,0.0002027,53.2171,314.0252,92.2087,267.9137,-8.6189e-05,-1.66e-05,0.0,0 STARLINK-3836,1 52577U 22051AT  23322.68607869 -.00001660  00000-0 -86189-4 0  9999,2 52577  53.2171 314.0252 0002027  92.2087 267.9137 15.08844300 84339,6917.867,95.437,541.134,538.33,0.0
52577.0,STARLINK-3836,PAYLOAD,2023-11-19 09:57:11,15.08843468,0.0002092,53.2172,310.7537,95.162,264.9611,-2.0451e-05,-6.14e-06,0.0,0 STARLINK-3836,1 52577U 22051AT  23323.41472029 -.00000614  00000-0 -20451-4 0  9997,2 52577  53.2172 310.7537 0002092  95.1620 264.9611 15.08843468 84378,6917.87,95.437,541.182,538.288,0.0
52577.0,STARLINK-3836,PAYLOAD,2023-11-19 16:18:44,15.08843339,0.0002053,53.2172,309.5641,92.3418,267.7809,-2.1235e-05,-6.26e-06,0.0,0 STARLINK-3836,1 52577U 22051AT  23323.67968047 -.00000626  00000-0 -21235-4 0  9999,2 52577  53.2172 309.5641 0002053  92.3418 267.7809 15.08843339 84413,6917.87,95.437,541.155,538.315,0.0
52577.0,STARLINK-3836,PAYLOAD,2023-11-20 03:26:26,15.08842486,0.0002007,53.2168,307.4822,93.4145,266.7077,0.00016515,2.341e-05,0.0,0 STARLINK-3836,1 52577U 22051AT  23324.14336144  .00002341  00000-0  16515-3 0  9997,2 52577  53.2168 307.4822 0002007  93.4145 266.7077 15.08842486 84557,6917.873,95.437,541.126,538.349,0.0
52577.0,STARLINK-3836,PAYLOAD,2023-11-20 06:37:12,15.08846517,0.0002001,53.2168,306.8875,92.3923,267.7298,0.00021891,3.198e-05,0.0,0 STARLINK-3836,1 52577U 22051AT  23324.27583999  .00003198  00000-0  21891-3 0  9997,2 52577  53.2168 306.8875 0002001  92.3923 267.7298 15.08846517 84504,6917.86,95.437,541.11,538.341,0.0
52577.0,STARLINK-3836,PAYLOAD,2023-11-20 22:31:04,15.08839673,0.0001929,53.2164,303.9129,88.6677,271.4536,0.00017069,2.429e-05,0.0,0 STARLINK-3836,1 52577U 22051AT  23324.93824395  .00002429  00000-0  17069-3 0  9996,2 52577  53.2164 303.9129 0001929  88.6677 271.4536 15.08839673 84605,6917.881,95.438,541.081,538.412,0.0
52577.0,STARLINK-3836,PAYLOAD,2023-11-21 03:17:13,15.08842594,0.0001926,53.2167,303.0203,89.7267,270.3946,0.00019684,2.846e-05,0.0,0 STARLINK-3836,1 52577U 22051AT  23325.13696266  .00002846  00000-0  19684-3 0  9991,2 52577  53.2167 303.0203 0001926  89.7267 270.3946 15.08842594 84706,6917.872,95.437,541.07,538.405,0.0
52577.0,STARLINK-3836,PAYLOAD,2023-11-21 08:03:22,15.08850334,0.0001947,53.2168,302.1282,90.4167,269.7049,0.00025017,3.697e-05,0.0,0 STARLINK-3836,1 52577U 22051AT  23325.33567899  .00003697  00000-0  25017-3 0  9994,2 52577  53.2168 302.1282 0001947  90.4167 269.7049 15.08850334 84667,6917.849,95.437,541.061,538.367,0.0
52577.0,STARLINK-3836,PAYLOAD,2023-11-22 07:54:09,15.08856971,0.0001925,53.2159,297.6642,98.6411,261.4799,0.00035141,5.312e-05,0.0,0 STARLINK-3836,1 52577U 22051AT  23326.32927388  .00005312  00000-0  35141-3 0  9992,2 52577  53.2159 297.6642 0001925  98.6411 261.4799 15.08856971 84881,6917.829,95.436,541.025,538.362,0.0
52577.0,STARLINK-3836,PAYLOAD,2023-11-23 02:58:46,15.08849673,0.0002452,53.2167,294.0987,120.993,239.1304,0.00017725,2.534e-05,0.0,0 STARLINK-3836,1 52577U 22051AT  23327.12415265  .00002534  00000-0  17725-3 0  9998,2 52577  53.2167 294.0987 0002452 120.9930 239.1304 15.08849673 85004,6917.851,95.437,541.412,538.02,0.0
52577.0,STARLINK-3836,PAYLOAD,2023-11-23 07:44:55,15.08860304,0.0002056,53.2157,293.2056,107.3998,252.7219,0.00044875,6.865e-05,0.0,0 STARLINK-3836,1 52577U 22051AT  23327.32286961  .00006865  00000-0  44875-3 0  9996,2 52577  53.2157 293.2056 0002056 107.3998 252.7219 15.08860304 84968,6917.818,95.436,541.106,538.261,0.0
52577.0,STARLINK-3836,PAYLOAD,2023-11-24 02:49:34,15.08831712,0.0002194,53.2159,289.63,115.3055,244.8164,-0.00013052,-2.365e-05,0.0,0 STARLINK-3836,1 52577U 22051AT  23328.11776186 -.00002365  00000-0 -13052-3 0  9993,2 52577  53.2159 289.6300 0002194 115.3055 244.8164 15.08831712 85151,6917.906,95.438,541.289,538.253,0.0
52577.0,STARLINK-3836,PAYLOAD,2023-11-24 07:35:44,15.08828356,0.0001989,53.216,288.7425,105.1357,254.9855,-0.00013175,-2.384e-05,0.0,0 STARLINK-3836,1 52577U 22051AT  23328.31648526 -.00002384  00000-0 -13175-3 0  9998,2 52577  53.2160 288.7425 0001989 105.1357 254.9855 15.08828356 85119,6917.916,95.438,541.157,538.405,0.0
52577.0,STARLINK-3836,PAYLOAD,2023-11-24 21:54:12,15.08834557,0.0001985,53.2163,286.0681,109.712,250.4086,5.5819e-05,6e-06,0.0,0 STARLINK-3836,1 52577U 22051AT  23328.91264845  .00000600  00000-0  55819-4 0  9991,2 52577  53.2163 286.0681 0001985 109.7120 250.4086 15.08834557 85208,6917.897,95.438,541.135,538.389,0.0
52577.0,STARLINK-3836,PAYLOAD,2023-11-25 04:15:45,15.08847964,0.0001917,53.2165,284.8784,98.3011,261.8199,0.00057719,8.912e-05,0.0,0 STARLINK-3836,1 52577U 22051AT  23329.17760789  .00008912  00000-0  57719-3 0  9992,2 52577  53.2165 284.8784 0001917  98.3011 261.8199 15.08847964 85248,6917.856,95.437,541.047,538.395,0.0
52577.0,STARLINK-3836,PAYLOAD,2023-11-26 02:31:08,15.08875257,0.0001875,53.2164,280.7153,97.2709,262.8496,0.0010552,0.00016562,0.0,0 STARLINK-3836,1 52577U 22051AT  23330.10495907  .00016562  00000-0  10552-2 0  9997,2 52577  53.2164 280.7153 0001875  97.2709 262.8496 15.08875257 85389,6917.773,95.435,540.935,538.341,0.0
52577.0,STARLINK-3836,PAYLOAD,2023-11-27 03:57:20,15.08821231,0.0001906,53.2171,275.9589,101.2913,258.8293,-0.00030938,-5.206e-05,0.0,0 STARLINK-3836,1 52577U 22051AT  23331.16481647 -.00005206  00000-0 -30938-3 0  9996,2 52577  53.2171 275.9589 0001906 101.2913 258.8293 15.08821231 85613,6917.938,95.439,541.121,538.484,0.0
52577.0,STARLINK-3836,PAYLOAD,2023-11-27 05:32:43,15.0882483,0.0001999,53.217,275.6598,108.3392,251.7818,-0.00023614,-4.043e-05,0.0,0 STARLINK-3836,1 52577U 22051AT  23331.23105656 -.00004043  00000-0 -23614-3 0  9998,2 52577  53.2170 275.6598 0001999 108.3392 251.7818 15.08824830 85556,6917.927,95.439,541.175,538.409,0.0
52577.0,STARLINK-3836,PAYLOAD,2023-11-28 02:12:43,15.08855594,0.0001766,53.2161,271.7991,100.5326,259.5866,0.00042659,6.511e-05,0.0,0 STARLINK-3836,1 52577U 22051AT  23332.09216652  .00006511  00000-0  42659-3 0  9992,2 52577  53.2161 271.7991 0001766 100.5326 259.5866 15.08855594 85755,6917.833,95.437,540.919,538.476,0.0
52577.0,STARLINK-3836,PAYLOAD,2023-11-28 03:48:06,15.08858377,0.0001888,53.2171,271.4984,106.0629,254.0571,0.00046425,7.112e-05,0.0,0 STARLINK-3836,1 52577U 22051AT  23332.15840422  .00007112  00000-0  46425-3 0  9990,2 52577  53.2171 271.4984 0001888 106.0629 254.0571 15.08858377 85695,6917.824,95.436,540.995,538.383,0.0
52577.0,STARLINK-3836,PAYLOAD,2023-11-28 19:41:58,15.08840996,0.0002054,53.2172,268.5239,119.7677,240.3519,0.00025641,3.795e-05,0.0,0 STARLINK-3836,1 52577U 22051AT  23332.82081591  .00003795  00000-0  25641-3 0  9998,2 52577  53.2172 268.5239 0002054 119.7677 240.3519 15.08840996 85863,6917.877,95.437,541.163,538.321,0.0
52577.0,STARLINK-3836,PAYLOAD,2023-11-29 05:14:16,15.08852276,0.0002101,53.2167,266.7409,110.6875,249.4342,0.00041833,6.378e-05,0.0,0 STARLINK-3836,1 52577U 22051AT  23333.21825178  .00006378  00000-0  41833-3 0  9990,2 52577  53.2167 266.7409 0002101 110.6875 249.4342 15.08852276 85924,6917.843,95.437,541.161,538.254,0.0
52577.0,STARLINK-3836,PAYLOAD,2023-11-30 01:54:17,15.08843713,0.0002019,53.2172,262.8753,99.427,260.695,-2.6607e-05,-7.12e-06,0.0,0 STARLINK-3836,1 52577U 22051AT  23334.07937091 -.00000712  00000-0 -26607-4 0  9994,2 52577  53.2172 262.8753 0002019  99.4270 260.6950 15.08843713 86051,6917.869,95.437,541.131,538.337,0.0
52577.0,STARLINK-3836,PAYLOAD,2023-12-01 22:25:04,15.08863064,0.0001648,53.2166,254.5483,106.0092,254.1082,7.8988e-05,9.7e-06,0.0,0 STARLINK-3836,1 52577U 22051AT  23335.93408435  .00000970  00000-0  78988-4 0  9998,2 52577  53.2166 254.5483 0001648 106.0092 254.1082 15.08863064 86264,6917.81,95.436,540.815,538.535,0.0
52577.0,STARLINK-3836,PAYLOAD,2023-12-02 00:00:28,15.08867538,0.0001739,53.2172,254.2556,109.0572,251.0609,0.00071537,0.00011124,0.0,0 STARLINK-3836,1 52577U 22051AT  23336.00032697  .00011124  00000-0  71537-3 0  9995,2 52577  53.2172 254.2556 0001739 109.0572 251.0609 15.08867538 86346,6917.796,95.436,540.864,538.458,0.0
52577.0,STARLINK-3836,PAYLOAD,2023-12-02 04:46:37,15.08872052,0.0001931,53.2175,253.3577,81.0853,279.0357,0.00062626,9.702e-05,0.0,0 STARLINK-3836,1 52577U 22051AT  23336.19904226  .00009702  00000-0  62626-3 0  9999,2 52577  53.2175 253.3577 0001931  81.0853 279.0357 15.08872052 86300,6917.782,95.436,540.983,538.312,0.0
52577.0,STARLINK-3836,PAYLOAD,2023-12-02 22:15:54,15.08802666,0.0001244,53.216,250.0885,89.7561,270.3574,-0.0006176,-0.00010093,0.0,0 STARLINK-3836,1 52577U 22051AT  23336.92771489 -.00010093  00000-0 -61760-3 0  9998,2 52577  53.2160 250.0885 0001244  89.7561 270.3574 15.08802666 86419,6917.995,95.44,540.72,538.999,0.0
